AMOS-3                  
1 32794U 08022A   19335.85515596 -.00000034  00000-0  00000-0 0  9990
2 32794   0.0428 128.1728 0001414  71.3090 174.6685  1.00272797 58410
GALAXY 18 (G-18)        
1 32951U 08024A   19336.14053736  .00000026  00000-0  00000+0 0  9992
2 32951   0.0175 328.7476 0002571 270.0574 119.4763  1.00272697 42137
CHINASAT 9 (ZX 9)       
1 33051U 08028A   19335.85647652 -.00000247  00000-0  00000-0 0  9998
2 33051   0.0159 306.2085 0004092 311.4838 213.2763  1.00273254 42088
SKYNET 5C               
1 33055U 08030A   19336.32737906 -.00000138  00000-0  00000+0 0  9998
2 33055   0.0637 351.3248 0004845 248.9258 290.6975  1.00270892 41944
TURKSAT 3A              
1 33056U 08030B   19336.22320493  .00000147  00000-0  00000+0 0  9996
2 33056   0.0850  92.5379 0003027 134.1171 326.5038  1.00274831 42129
INTELSAT 25 (IS-25)     
1 33153U 08034A   19335.84974733 -.00000223  00000-0  00000-0 0  9994
2 33153   0.0152 275.4243 0002514 338.5115  90.8973  1.00272044 41775
BADR-6                  
1 33154U 08034B   19336.29194696  .00000146  00000-0  00000+0 0  9999
2 33154   0.0515  21.2398 0001324 267.1839 273.5186  1.00271470 41795
ECHOSTAR 11             
1 33207U 08035A   19335.61874618 -.00000056  00000-0  00000+0 0  9994
2 33207   0.0566 119.0272 0002667 123.9180 300.0000  1.00271998 41691
SUPERBIRD-C2            
1 33274U 08038A   19335.90466336 -.00000250  00000-0  00000-0 0  9994
2 33274   0.0089  63.3983 0001622 203.0817 273.6295  1.00271052 81777
AMC-21                  
1 33275U 08038B   19335.83823400  .00000037  00000-0  00000-0 0  9998
2 33275   0.0125 344.0480 0002524 266.6227 356.6008  1.00271533 41530
INMARSAT 4-F3           
1 33278U 08039A   19336.58992925 -.00000138  00000-0  00000+0 0  9996
2 33278   3.0948  11.0863 0002838 242.6799 291.7731  1.00270949 41319
NIMIQ 4                 
1 33373U 08044A   19336.05501380 -.00000219  00000-0  00000+0 0  9991
2 33373   0.0057  18.7371 0002084 242.5468 107.1674  1.00271457 40888
GALAXY 19 (G-19)        
1 33376U 08045A   19336.18844924 -.00000138  00000-0  00000+0 0  9993
2 33376   0.0146 341.8938 0002834 269.5992 150.0879  1.00271235 40881
VENESAT-1               
1 33414U 08055A   19336.09146413 -.00000237  00000-0  00000+0 0  9995
2 33414   0.0119 163.7484 0002323  88.9851 132.8593  1.00272896 40594
ASTRA 1M                
1 33436U 08057A   19336.26785583  .00000121  00000-0  00000+0 0  9998
2 33436   0.0117 303.8771 0003246 255.7078 346.8669  1.00271543 40524
CIEL-2                  
1 33453U 08063A   19335.83259743  .00000059  00000-0  00000+0 0  9990
2 33453   0.0089 340.9257 0003096 280.9863 339.3752  1.00272067 40181
EUTELSAT HOT BIRD 13C   
1 33459U 08065A   19335.83190112  .00000088  00000-0  00000-0 0  9995
2 33459   0.0675  59.7178 0002344 160.0511 163.1241  1.00272874 23383
EUTELSAT 48D            
1 33460U 08065B   19336.25119076  .00000125  00000-0  00000+0 0  9995
2 33460   0.0949  70.5766 0001866 173.7183 325.0491  1.00270661 40159
FENGYUN 2E              
1 33463U 08066A   19336.47098251 -.00000198  00000-0  00000+0 0  9995
2 33463   3.9342  68.9514 0004408 266.0337 352.0762  1.00265751 40138
EXPRESS-AM44            
1 33595U 09007A   19336.42786076 -.00000087  00000-0  00000+0 0  9998
2 33595   0.0038 250.8815 0000526  43.2878 279.8442  1.00271235 39607
NSS-9                   
1 33749U 09008A   19335.79494007  .00000072  00000-0  00000+0 0  9992
2 33749   0.0172 342.6057 0002157 265.4056 291.6021  1.00271730 39608
EUTELSAT 33E            
1 33750U 09008B   19336.26230208  .00000157  00000-0  00000+0 0  9992
2 33750   0.0552  16.1132 0003813 229.6130 312.6026  1.00272121 39642
TELSTAR 11N             
1 34111U 09009A   19336.35100576 -.00000249  00000-0  00000+0 0  9992
2 34111   0.0098 338.9454 0002385 253.2290 287.5617  1.00270847 39463
EUTELSAT 10A            
1 34710U 09016A   19335.83182490  .00000069  00000-0  00000-0 0  9992
2 34710   0.0661   8.6638 0005384 237.9979 133.2092  1.00270060 17292
WGS F2 (USA 204)        
1 34713U 09017A   19336.30604971  .00000049  00000-0  00000+0 0  9999
2 34713   0.0178 338.5879 0000088 113.0843 149.5727  1.00270958 38980
SES-7 (PROTOSTAR 2)     
1 34941U 09027A   19336.38014262 -.00000343  00000-0  00000+0 0  9997
2 34941   0.0671 100.1426 0001485 163.2431  52.6682  1.00270955 38660
MEASAT-3A               
1 35362U 09032A   19336.37674042 -.00000240  00000-0  00000+0 0  9994
2 35362   0.0434 154.4727 0003270  90.4817  53.1197  1.00271036 38279
GOES 14                 
1 35491U 09033A   19336.55310605 -.00000092  00000-0  00000+0 0  9995
2 35491   0.1655 281.9044 0012538 304.9406 299.2279  1.00272124 38206
SIRIUS FM-5             
1 35493U 09034A   19335.83884282 -.00000199  00000-0  00000-0 0  9994
2 35493   0.0185 305.0081 0000681 169.8183 171.4314  1.00271145 22734
TERRESTAR-1             
1 35496U 09035A   19335.69027977 -.00000056  00000-0  00000-0 0  9994
2 35496   2.4978  10.3796 0002871 244.2939 313.0961  1.00272378 38213
ASIASAT 5               
1 35696U 09042A   19335.88174459 -.00000307  00000-0  00000-0 0  9992
2 35696   0.0291 103.7910 0001715 122.5357 262.0589  1.00273809 37735
JCSAT-RA (JCSAT-12)     
1 35755U 09044A   19336.32038590 -.00000030  00000-0  00000+0 0  9997
2 35755   0.0429 262.4436 0002275 358.7250  93.9471  1.00271277 37713
OPTUS D3                
1 35756U 09044B   19336.31785605 -.00000145  00000-0  00000+0 0  9990
2 35756   0.0463  47.7921 0002949 214.7773  78.7571  1.00272009 37686
PALAPA D                
1 35812U 09046A   19335.49156013 -.00000358  00000-0  00000-0 0  9995
2 35812   0.0565 102.1457 0002253 181.5091  76.3339  1.00270742 37716
NIMIQ 5                 
1 35873U 09050A   19335.84154715 -.00000256  00000-0  00000-0 0  9990
2 35873   0.0586 105.2358 0002437 136.7771  58.6609  1.00272169 37393
AMAZONAS 2              
1 35942U 09054A   19336.46178944 -.00000281  00000-0  00000+0 0  9997
2 35942   0.0562 127.1834 0002659  78.0620 331.0376  1.00273400 37223
COMSATBW-1              
1 35943U 09054B   19335.90336567  .00000025  00000-0  00000-0 0  9999
2 35943   0.0317  74.5508 0002280 186.4354 197.7168  1.00271256 37349
NSS-12                  
1 36032U 09058A   19335.91652649  .00000072  00000-0  00000-0 0  9998
2 36032   0.0126 355.8311 0002912 260.2810 201.3214  1.00273166 36989
THOR 6                  
1 36033U 09058B   19335.83155046 -.00000009  00000-0  00000-0 0  9990
2 36033   0.0482 126.0435 0001719 142.1377 100.7275  1.00272560 37055
INTELSAT 14 (IS-14)     
1 36097U 09064A   19336.13521612 -.00000272  00000-0  00000+0 0  9998
2 36097   0.0004 216.0400 0002558  41.3285 177.0205  1.00271267 36745
EUTELSAT 36B            
1 36101U 09065A   19335.85049516  .00000156  00000-0  00000-0 0  9992
2 36101   0.0661   7.0699 0004664 236.4153 169.0124  1.00270265 36769
INTELSAT 15 (IS-15)     
1 36106U 09067A   19335.81893603 -.00000185  00000-0  00000-0 0  9992
2 36106   0.0136  34.0173 0002036 214.0913 202.2536  1.00271668 17354
WGS F3 (USA 211)        
1 36108U 09068A   19336.35615270 -.00000094  00000-0  00000+0 0  9995
2 36108   0.0138 350.8568 0000542 198.2149 358.0720  1.00273126 36569
DIRECTV 12              
1 36131U 09075A   19335.83544063 -.00000102  00000-0  00000-0 0  9993
2 36131   0.0403 156.1245 0000241  11.1761 101.0706  1.00271511 22637
BEIDOU 3                
1 36287U 10001A   19335.90466336 -.00000283  00000-0  00000-0 0  9990
2 36287   1.3685  10.6679 0003363 160.1470   5.3651  1.00268658 36223
RADUGA-1M 2             
1 36358U 10002A   19336.37543187 -.00000182  00000-0  00000+0 0  9999
2 36358   0.0226 257.2975 0002292  18.0906  15.7016  1.00271620 36056
SDO                     
1 36395U 10005A   19335.93104868 -.00000047  00000-0  00000+0 0  9993
2 36395  29.9943 124.6826 0000804  60.9263 118.3739  1.00272517 36074
INTELSAT 16 (IS-16)     
1 36397U 10006A   19335.84084925 -.00000244  00000-0  00000-0 0  9997
2 36397   0.0150  46.1799 0001955 198.4163  52.3307  1.00271396 35900
GOES 15                 
1 36411U 10008A   19336.54830807  .00000057  00000-0  00000+0 0  9992
2 36411   0.1860 274.8937 0001589 277.2763 307.9980  1.00277667 35717
ECHOSTAR 14             
1 36499U 10010A   19335.84348978  .00000001  00000-0  00000-0 0  9996
2 36499   0.0161 302.6762 0002964 304.8156   7.6809  1.00271090 22616
SES-1                   
1 36516U 10016A   19335.83672920 -.00000114  00000-0  00000+0 0  9993
2 36516   0.0089 346.6983 0002331 260.3667  23.5678  1.00272159 35172
ASTRA 3B                
1 36581U 10021A   19335.85605208  .00000138  00000-0  00000-0 0  9994
2 36581   0.0435 318.4849 0002920 299.8304 143.7908  1.00271905 34916
COMSATBW-2              
1 36582U 10021B   19335.83190112  .00000090  00000-0  00000+0 0  9992
2 36582   0.0670  99.9914 0001856 157.2573 125.8537  1.00274575 35033
BADR-5                  
1 36592U 10025A   19336.32271597  .00000146  00000-0  00000+0 0  9991
2 36592   0.0492 123.6804 0003770  78.8566  10.5129  1.00273834 34949
COMS 1                  
1 36744U 10032A   19336.38406824 -.00000342  00000-0  00000+0 0  9996
2 36744   0.0504 126.5456 0000914  78.6917 132.1349  1.00272622 34705
ARABSAT-5A              
1 36745U 10032B   19336.31715865  .00000155  00000-0  00000+0 0  9999
2 36745   0.0718  47.3410 0001543 154.6767  13.5284  1.00270055 34674
ECHOSTAR 15             
1 36792U 10034A   19335.84372804 -.00000281  00000-0  00000-0 0  9994
2 36792   0.0150   8.6352 0001736 216.8518  87.0386  1.00273127 34379
NILESAT 201             
1 36830U 10037A   19336.35711229 -.00000056  00000-0  00000+0 0  9994
2 36830   0.0565 143.4626 0002999  96.7700 312.2407  1.00271938 34335
RASCOM-QAF 1R           
1 36831U 10037B   19335.85663897  .00000019  00000-0  00000-0 0  9995
2 36831   0.0062  48.2015 0006221 210.7994 122.7186  1.00270685 34333
